ONEWEB-0228             
1 48780U 21045P   24139.49225966  .00000009  00000+0 -10080-4 0  9993
2 48780  87.9050  50.3571 0001924  83.8676 276.2673 13.15547453144441
